start=new Date('2023-04-10T00:00:00.000Z').valueOf();
sats=[{"SITE":"AFETR","ARG_OF_PERICENTER":"67.8951","PERIAPSIS":"546.306","OBJECT_TYPE":"PAYLOAD","REF_FRAME":"TEME","OBJECT_ID":"2021-041AG","APOAPSIS":"547.940","MEAN_ANOMALY":"292.2163","RCS_SIZE":"LARGE","EPHEMERIS_TYPE":"0","CENTER_NAME":"EARTH","COUNTRY_CODE":"US","CLASSIFICATION_TYPE":"U","TLE_LINE2":"2 48583  53.0532 242.5637 0001180  67.8951 292.2163 15.06429617104543","TLE_LINE1":"1 48583U 21041AG  23099.69564980  .00025107  00000-0  16971-2 0  9997","MEAN_MOTION":"15.06429617","DECAY_DATE":null,"LAUNCH_DATE":"2021-05-15","OBJECT_NAME":"STARLINK-2237","SEMIMAJOR_AXIS":"6925.258","EPOCH":"2023-04-09T16:41:44.142720","RA_OF_ASC_NODE":"242.5637","MEAN_MOTION_DOT":"0.00025107","FILE":"3884641","ELEMENT_SET_NO":"999","TIME_SYSTEM":"UTC","MEAN_ELEMENT_THEORY":"SGP4","PERIOD":"95.590","INCLINATION":"53.0532","MEAN_MOTION_DDOT":"0.0000000000000","ECCENTRICITY":"0.00011800","NORAD_CAT_ID":"48583","GP_ID":"229807761","REV_AT_EPOCH":"10454","BSTAR":"0.00169710000000"},{"REF_FRAME":"TEME","APOAPSIS":"547.931","OBJECT_ID":"2021-041AH","MEAN_ANOMALY":"270.6459","RCS_SIZE":"LARGE","SITE":"AFETR","ARG_OF_PERICENTER":"89.4685","OBJECT_TYPE":"PAYLOAD","PERIAPSIS":"546.049","COUNTRY_CODE":"US","CLASSIFICATION_TYPE":"U","TLE_LINE2":"2 48584  53.0533 242.6782 0001359  89.4685 270.6459 15.06472846104538","TLE_LINE1":"1 48584U 21041AH  23099.66980836  .00024776  00000-0  16731-2 0  9992","MEAN_MOTION":"15.06472846","EPHEMERIS_TYPE":"0","CENTER_NAME":"EARTH","FILE":"3884641","MEAN_MOTION_DOT":"0.00024776","ELEMENT_SET_NO":"999","TIME_SYSTEM":"UTC","MEAN_ELEMENT_THEORY":"SGP4","PERIOD":"95.588","DECAY_DATE":null,"LAUNCH_DATE":"2021-05-15","OBJECT_NAME":"STARLINK-2238","SEMIMAJOR_AXIS":"6925.125","EPOCH":"2023-04-09T16:04:31.442304","RA_OF_ASC_NODE":"242.6782","BSTAR":"0.00167310000000","MEAN_MOTION_DDOT":"0.0000000000000","INCLINATION":"53.0533","ECCENTRICITY":"0.00013590","NORAD_CAT_ID":"48584","GP_ID":"229808006","REV_AT_EPOCH":"10453"},{"INCLINATION":"53.0521","MEAN_MOTION_DDOT":"0.0000000000000","ECCENTRICITY":"0.00009930","NORAD_CAT_ID":"48585","GP_ID":"229808255","REV_AT_EPOCH":"10453","BSTAR":"0.00034798000000","DECAY_DATE":null,"OBJECT_NAME":"STARLINK-2240","LAUNCH_DATE":"2021-05-15","EPOCH":"2023-04-09T16:20:23.636832","SEMIMAJOR_AXIS":"6925.180","RA_OF_ASC_NODE":"242.6262","MEAN_MOTION_DOT":"0.00004913","FILE":"3884641","TIME_SYSTEM":"UTC","ELEMENT_SET_NO":"999","MEAN_ELEMENT_THEORY":"SGP4","PERIOD":"95.589","EPHEMERIS_TYPE":"0","CENTER_NAME":"EARTH","COUNTRY_CODE":"US","CLASSIFICATION_TYPE":"U","TLE_LINE2":"2 48585  53.0521 242.6262 0000993  62.2579 297.8511 15.06454857104535","TLE_LINE1":"1 48585U 21041AJ  23099.68082913  .00004913  00000-0  34798-3 0  9999","MEAN_MOTION":"15.06454857","SITE":"AFETR","ARG_OF_PERICENTER":"62.2579","OBJECT_TYPE":"PAYLOAD","PERIAPSIS":"546.358","OBJECT_ID":"2021-041AJ","APOAPSIS":"547.733","REF_FRAME":"TEME","RCS_SIZE":"LARGE","MEAN_ANOMALY":"297.8511"},{"REV_AT_EPOCH":"10453","GP_ID":"229808999","NORAD_CAT_ID":"48586","ECCENTRICITY":"0.00013940","INCLINATION":"53.0533","MEAN_MOTION_DDOT":"0.0000000000000","BSTAR":"0.00174380000000","RA_OF_ASC_NODE":"242.6628","EPOCH":"2023-04-09T16:09:53.827488","SEMIMAJOR_AXIS":"6925.255","OBJECT_NAME":"STARLINK-2241","LAUNCH_DATE":"2021-05-15","DECAY_DATE":null,"PERIOD":"95.590","MEAN_ELEMENT_THEORY":"SGP4","TIME_SYSTEM":"UTC","ELEMENT_SET_NO":"999","MEAN_MOTION_DOT":"0.00025809","FILE":"3884641","CENTER_NAME":"EARTH","EPHEMERIS_TYPE":"0","MEAN_MOTION":"15.06430444","TLE_LINE1":"1 48586U 21041AK  23099.67353967  .00025809  00000-0  17438-2 0  9997","TLE_LINE2":"2 48586  53.0533 242.6628 0001394  82.4980 277.6167 15.06430444104530","CLASSIFICATION_TYPE":"U","COUNTRY_CODE":"US","OBJECT_TYPE":"PAYLOAD","PERIAPSIS":"546.155","ARG_OF_PERICENTER":"82.4980","SITE":"AFETR","RCS_SIZE":"LARGE","MEAN_ANOMALY":"277.6167","OBJECT_ID":"2021-041AK","APOAPSIS":"548.086","REF_FRAME":"TEME"},{"REF_FRAME":"TEME","OBJECT_ID":"2021-041AL","APOAPSIS":"547.946","MEAN_ANOMALY":"274.2124","RCS_SIZE":"LARGE","SITE":"AFETR","ARG_OF_PERICENTER":"85.9023","OBJECT_TYPE":"PAYLOAD","PERIAPSIS":"546.040","COUNTRY_CODE":"US","CLASSIFICATION_TYPE":"U","TLE_LINE2":"2 48587  53.0524 242.3459 0001376  85.9023 274.2124 15.06471843104541","TLE_LINE1":"1 48587U 21041AL  23099.74351870  .00018518  00000-0  12564-2 0  9991","MEAN_MOTION":"15.06471843","EPHEMERIS_TYPE":"0","CENTER_NAME":"EARTH","MEAN_MOTION_DOT":"0.00018518","FILE":"3884641","ELEMENT_SET_NO":"999","TIME_SYSTEM":"UTC","MEAN_ELEMENT_THEORY":"SGP4","PERIOD":"95.588","DECAY_DATE":null,"OBJECT_NAME":"STARLINK-2242","LAUNCH_DATE":"2021-05-15","SEMIMAJOR_AXIS":"6925.128","EPOCH":"2023-04-09T17:50:40.015680","RA_OF_ASC_NODE":"242.3459","BSTAR":"0.00125640000000","MEAN_MOTION_DDOT":"0.0000000000000","INCLINATION":"53.0524","ECCENTRICITY":"0.00013760","NORAD_CAT_ID":"48587","REV_AT_EPOCH":"10454","GP_ID":"229807261"},{"EPHEMERIS_TYPE":"0","CENTER_NAME":"EARTH","COUNTRY_CODE":"US","CLASSIFICATION_TYPE":"U","TLE_LINE2":"2 48588  53.0542 232.1393 0001272  77.0917 283.0214 15.06445565104691","TLE_LINE1":"1 48588U 21041AM  23099.78871580  .00030512  00000-0  20559-2 0  9992","MEAN_MOTION":"15.06445565","SITE":"AFETR","ARG_OF_PERICENTER":"77.0917","PERIAPSIS":"546.193","OBJECT_TYPE":"PAYLOAD","APOAPSIS":"547.955","OBJECT_ID":"2021-041AM","REF_FRAME":"TEME","RCS_SIZE":"LARGE","MEAN_ANOMALY":"283.0214","INCLINATION":"53.0542","MEAN_MOTION_DDOT":"0.0000000000000","ECCENTRICITY":"0.00012720","NORAD_CAT_ID":"48588","GP_ID":"229807506","REV_AT_EPOCH":"10469","BSTAR":"0.00205590000000","DECAY_DATE":null,"LAUNCH_DATE":"2021-05-15","OBJECT_NAME":"STARLINK-2244","EPOCH":"2023-04-09T18:55:45.045120","SEMIMAJOR_AXIS":"6925.209","RA_OF_ASC_NODE":"232.1393","MEAN_MOTION_DOT":"0.00030512","FILE":"3884641","TIME_SYSTEM":"UTC","ELEMENT_SET_NO":"999","MEAN_ELEMENT_THEORY":"SGP4","PERIOD":"95.589"},{"BSTAR":"0.00200380000000","ECCENTRICITY":"0.00013630","MEAN_MOTION_DDOT":"0.0000000000000","INCLINATION":"53.0539","GP_ID":"229808756","REV_AT_EPOCH":"10469","NORAD_CAT_ID":"48589","TIME_SYSTEM":"UTC","ELEMENT_SET_NO":"999","FILE":"3884641","MEAN_MOTION_DOT":"0.00029763","PERIOD":"95.587","MEAN_ELEMENT_THEORY":"SGP4","OBJECT_NAME":"STARLINK-2245","LAUNCH_DATE":"2021-05-15","DECAY_DATE":null,"RA_OF_ASC_NODE":"232.1614","EPOCH":"2023-04-09T18:50:22.235712","SEMIMAJOR_AXIS":"6925.078","TLE_LINE2":"2 48589  53.0539 232.1614 0001363  87.9538 272.1607 15.06488205104697","CLASSIFICATION_TYPE":"U","COUNTRY_CODE":"US","MEAN_MOTION":"15.06488205","TLE_LINE1":"1 48589U 21041AN  23099.78497958  .00029763  00000-0  20038-2 0  9994","EPHEMERIS_TYPE":"0","CENTER_NAME":"EARTH","OBJECT_ID":"2021-041AN","APOAPSIS":"547.887","REF_FRAME":"TEME","RCS_SIZE":"LARGE","MEAN_ANOMALY":"272.1607","SITE":"AFETR","OBJECT_TYPE":"PAYLOAD","PERIAPSIS":"545.999","ARG_OF_PERICENTER":"87.9538"},{"EPHEMERIS_TYPE":"0","CENTER_NAME":"EARTH","CLASSIFICATION_TYPE":"U","COUNTRY_CODE":"US","TLE_LINE2":"2 48591  53.0538 232.8238 0001348  83.6095 276.5048 15.06475448105572","TLE_LINE1":"1 48591U 21041AQ  23099.63660788  .00029352  00000-0  19772-2 0  9991","MEAN_MOTION":"15.06475448","SITE":"AFETR","ARG_OF_PERICENTER":"83.6095","PERIAPSIS":"546.049","OBJECT_TYPE":"PAYLOAD","REF_FRAME":"TEME","OBJECT_ID":"2021-041AQ","APOAPSIS":"547.916","MEAN_ANOMALY":"276.5048","RCS_SIZE":"LARGE","MEAN_MOTION_DDOT":"0.0000000000000","INCLINATION":"53.0538","ECCENTRICITY":"0.00013480","NORAD_CAT_ID":"48591","GP_ID":"229808499","REV_AT_EPOCH":"10557","BSTAR":"0.00197720000000","DECAY_DATE":null,"LAUNCH_DATE":"2021-05-15","OBJECT_NAME":"STARLINK-2248","SEMIMAJOR_AXIS":"6925.117","EPOCH":"2023-04-09T15:16:42.920832","RA_OF_ASC_NODE":"232.8238","FILE":"3884641","MEAN_MOTION_DOT":"0.00029352","ELEMENT_SET_NO":"999","TIME_SYSTEM":"UTC","MEAN_ELEMENT_THEORY":"SGP4","PERIOD":"95.587"},{"MEAN_ANOMALY":"293.6769","RCS_SIZE":"LARGE","REF_FRAME":"TEME","APOAPSIS":"547.995","OBJECT_ID":"2021-041AR","PERIAPSIS":"546.228","OBJECT_TYPE":"PAYLOAD","ARG_OF_PERICENTER":"66.4354","SITE":"AFETR","MEAN_MOTION":"15.06433318","TLE_LINE1":"1 48592U 21041AR  23099.71314335  .00026694  00000-0  18026-2 0  9992","TLE_LINE2":"2 48592  53.0540 242.5077 0001276  66.4354 293.6769 15.06433318104548","CLASSIFICATION_TYPE":"U","COUNTRY_CODE":"US","CENTER_NAME":"EARTH","EPHEMERIS_TYPE":"0","PERIOD":"95.590","MEAN_ELEMENT_THEORY":"SGP4","ELEMENT_SET_NO":"999","TIME_SYSTEM":"UTC","MEAN_MOTION_DOT":"0.00026694","FILE":"3884641","RA_OF_ASC_NODE":"242.5077","SEMIMAJOR_AXIS":"6925.246","EPOCH":"2023-04-09T17:06:55.585440","LAUNCH_DATE":"2021-05-15","OBJECT_NAME":"STARLINK-2249","DECAY_DATE":null,"BSTAR":"0.00180260000000","REV_AT_EPOCH":"10454","GP_ID":"229807762","NORAD_CAT_ID":"48592","ECCENTRICITY":"0.00012760","INCLINATION":"53.0540","MEAN_MOTION_DDOT":"0.0000000000000"},{"EPHEMERIS_TYPE":"0","CENTER_NAME":"EARTH","TLE_LINE2":"2 48593  53.0543 242.1630 0001714  85.5572 274.5613 15.06358260104553","COUNTRY_CODE":"US","CLASSIFICATION_TYPE":"U","MEAN_MOTION":"15.06358260","TLE_LINE1":"1 48593U 21041AS  23099.78415428  .00018938  00000-0  12883-2 0  9992","SITE":"AFETR","PERIAPSIS":"546.154","OBJECT_TYPE":"PAYLOAD","ARG_OF_PERICENTER":"85.5572","APOAPSIS":"548.529","OBJECT_ID":"2021-041AS","REF_FRAME":"TEME","RCS_SIZE":"LARGE","MEAN_ANOMALY":"274.5613","ECCENTRICITY":"0.00017140","MEAN_MOTION_DDOT":"0.0000000000000","INCLINATION":"53.0543","GP_ID":"229808007","REV_AT_EPOCH":"10455","NORAD_CAT_ID":"48593","BSTAR":"0.00128830000000","OBJECT_NAME":"STARLINK-2250","LAUNCH_DATE":"2021-05-15","DECAY_DATE":null,"RA_OF_ASC_NODE":"242.1630","EPOCH":"2023-04-09T18:49:10.929792","SEMIMAJOR_AXIS":"6925.476","TIME_SYSTEM":"UTC","ELEMENT_SET_NO":"999","MEAN_MOTION_DOT":"0.00018938","FILE":"3884641","PERIOD":"95.595","MEAN_ELEMENT_THEORY":"SGP4"}];
